[{"OBJECT_NAME":"STARLINK-35395","OBJECT_ID":"2025-232K","EPOCH":"2026-03-09T11:20:02.871744","MEAN_MOTION":15.30200354,"ECCENTRICITY":0.00013586,"INCLINATION":53.159,"RA_OF_ASC_NODE":104.8238,"ARG_OF_PERICENTER":82.1646,"MEAN_ANOMALY":277.9509,"EPHEMERIS_TYPE":0,"CLASSIFICATION_TYPE":"U","NORAD_CAT_ID":66014,"ELEMENT_SET_NO":999,"REV_AT_EPOCH":2340,"BSTAR":0.0011211953,"MEAN_MOTION_DOT":0.00032995,"MEAN_MOTION_DDOT":0},{"OBJECT_NAME":"PUCP-SAT 1","OBJECT_ID":"2013-066AC","EPOCH":"2026-03-09T22:02:13.763904","MEAN_MOTION":15.29426022,"ECCENTRICITY":0.00136836,"INCLINATION":97.5787,"RA_OF_ASC_NODE":61.0032,"ARG_OF_PERICENTER":300.1183,"MEAN_ANOMALY":59.87,"EPHEMERIS_TYPE":0,"CLASSIFICATION_TYPE":"U","NORAD_CAT_ID":39442,"ELEMENT_SET_NO":999,"REV_AT_EPOCH":66907,"BSTAR":0.00088755185,"MEAN_MOTION_DOT":0.00025373,"MEAN_MOTION_DDOT":0}]
